[
    {
        "OBJECT_NAME": "IRNSS-1F",
        "OBJECT_ID": "2016-015A",
        "EPOCH": "2025-11-18T01:32:21.932736",
        "MEAN_MOTION": 1.00276378,
        "ECCENTRICITY": 0.0021237,
        "INCLINATION": 4.8179,
        "RA_OF_ASC_NODE": 101.9172,
        "ARG_OF_PERICENTER": 179.3936,
        "MEAN_ANOMALY": 191.6095,
        "EPHEMERIS_TYPE": 0,
        "CLASSIFICATION_TYPE": "U",
        "NORAD_CAT_ID": 41384,
        "ELEMENT_SET_NO": 999,
        "REV_AT_EPOCH": 3555,
        "BSTAR": 0,
        "MEAN_MOTION_DOT": 1.77e-6,
        "MEAN_MOTION_DDOT": 0
    },
    {
        "OBJECT_NAME": "BEIDOU-2 IGSO-6 (C13)",
        "OBJECT_ID": "2016-021A",
        "EPOCH": "2025-11-17T17:12:49.787424",
        "MEAN_MOTION": 1.00259733,
        "ECCENTRICITY": 0.0059096,
        "INCLINATION": 59.9303,
        "RA_OF_ASC_NODE": 40.1506,
        "ARG_OF_PERICENTER": 230.4532,
        "MEAN_ANOMALY": 137.5397,
        "EPHEMERIS_TYPE": 0,
        "CLASSIFICATION_TYPE": "U",
        "NORAD_CAT_ID": 41434,
        "ELEMENT_SET_NO": 999,
        "REV_AT_EPOCH": 3536,
        "BSTAR": 0,
        "MEAN_MOTION_DOT": -1.66e-6,
        "MEAN_MOTION_DDOT": 0
    },
    {
        "OBJECT_NAME": "IRNSS-1G",
        "OBJECT_ID": "2016-027A",
        "EPOCH": "2025-11-17T23:25:21.584064",
        "MEAN_MOTION": 1.00274077,
        "ECCENTRICITY": 0.0001832,
        "INCLINATION": 4.6746,
        "RA_OF_ASC_NODE": 102.7296,
        "ARG_OF_PERICENTER": 25.1004,
        "MEAN_ANOMALY": 50.3585,
        "EPHEMERIS_TYPE": 0,
        "CLASSIFICATION_TYPE": "U",
        "NORAD_CAT_ID": 41469,
        "ELEMENT_SET_NO": 999,
        "REV_AT_EPOCH": 3506,
        "BSTAR": 0,
        "MEAN_MOTION_DOT": -3.15e-6,
        "MEAN_MOTION_DDOT": 0
    },
    {
        "OBJECT_NAME": "GSAT0211 (GALILEO 14)",
        "OBJECT_ID": "2016-030A",
        "EPOCH": "2025-11-17T00:56:51.160128",
        "MEAN_MOTION": 1.70473074,
        "ECCENTRICITY": 0.00037153,
        "INCLINATION": 55.1618,
        "RA_OF_ASC_NODE": 227.5308,
        "ARG_OF_PERICENTER": 358.7417,
        "MEAN_ANOMALY": 1.3021,
        "EPHEMERIS_TYPE": 0,
        "CLASSIFICATION_TYPE": "U",
        "NORAD_CAT_ID": 41549,
        "ELEMENT_SET_NO": 999,
        "REV_AT_EPOCH": 5905,
        "BSTAR": 0,
        "MEAN_MOTION_DOT": -1.1e-7,
        "MEAN_MOTION_DDOT": 0
    },
    {
        "OBJECT_NAME": "GSAT0210 (GALILEO 13)",
        "OBJECT_ID": "2016-030B",
        "EPOCH": "2025-11-17T07:07:38.397216",
        "MEAN_MOTION": 1.70473562,
        "ECCENTRICITY": 0.00017371,
        "INCLINATION": 55.161,
        "RA_OF_ASC_NODE": 227.5218,
        "ARG_OF_PERICENTER": 248.3084,
        "MEAN_ANOMALY": 111.7196,
        "EPHEMERIS_TYPE": 0,
        "CLASSIFICATION_TYPE": "U",
        "NORAD_CAT_ID": 41550,
        "ELEMENT_SET_NO": 999,
        "REV_AT_EPOCH": 5905,
        "BSTAR": 0,
        "MEAN_MOTION_DOT": -8.0e-8,
        "MEAN_MOTION_DDOT": 0
    },
    {
        "OBJECT_NAME": "EUTELSAT 117 WEST B (WAAS/PRN 131)",
        "OBJECT_ID": "2016-038B",
        "EPOCH": "2025-11-17T12:27:06.126624",
        "MEAN_MOTION": 1.00273314,
        "ECCENTRICITY": 9.87e-6,
        "INCLINATION": 0.0136,
        "RA_OF_ASC_NODE": 136.9088,
        "ARG_OF_PERICENTER": 9.7642,
        "MEAN_ANOMALY": 339.9677,
        "EPHEMERIS_TYPE": 0,
        "CLASSIFICATION_TYPE": "U",
        "NORAD_CAT_ID": 41589,
        "ELEMENT_SET_NO": 999,
        "REV_AT_EPOCH": 3454,
        "BSTAR": 0,
        "MEAN_MOTION_DOT": 3.0e-8,
        "MEAN_MOTION_DDOT": 0
    },
    {
        "OBJECT_NAME": "GSAT0207 (GALILEO 15)",
        "OBJECT_ID": "2016-069A",
        "EPOCH": "2025-11-15T05:29:54.301344",
        "MEAN_MOTION": 1.70474267,
        "ECCENTRICITY": 0.00019575,
        "INCLINATION": 55.3659,
        "RA_OF_ASC_NODE": 107.0118,
        "ARG_OF_PERICENTER": 337.0942,
        "MEAN_ANOMALY": 22.8824,
        "EPHEMERIS_TYPE": 0,
        "CLASSIFICATION_TYPE": "U",
        "NORAD_CAT_ID": 41859,
        "ELEMENT_SET_NO": 999,
        "REV_AT_EPOCH": 5575,
        "BSTAR": 0,
        "MEAN_MOTION_DOT": 4.0e-7,
        "MEAN_MOTION_DDOT": 0
    },
    {
        "OBJECT_NAME": "GSAT0212 (GALILEO 16)",
        "OBJECT_ID": "2016-069B",
        "EPOCH": "2025-11-16T20:13:14.850336",
        "MEAN_MOTION": 1.70474521,
        "ECCENTRICITY": 0.00025009,
        "INCLINATION": 55.3642,
        "RA_OF_ASC_NODE": 106.9626,
        "ARG_OF_PERICENTER": 40.4027,
        "MEAN_ANOMALY": 319.594,
        "EPHEMERIS_TYPE": 0,
        "CLASSIFICATION_TYPE": "U",
        "NORAD_CAT_ID": 41860,
        "ELEMENT_SET_NO": 999,
        "REV_AT_EPOCH": 5603,
        "BSTAR": 0,
        "MEAN_MOTION_DOT": 3.4e-7,
        "MEAN_MOTION_DDOT": 0
    },
    {
        "OBJECT_NAME": "GSAT0213 (GALILEO 17)",
        "OBJECT_ID": "2016-069C",
        "EPOCH": "2025-11-16T00:53:15.008064",
        "MEAN_MOTION": 1.70474784,
        "ECCENTRICITY": 0.00017054,
        "INCLINATION": 55.3658,
        "RA_OF_ASC_NODE": 106.9924,
        "ARG_OF_PERICENTER": 287.8702,
        "MEAN_ANOMALY": 72.0933,
        "EPHEMERIS_TYPE": 0,
        "CLASSIFICATION_TYPE": "U",
        "NORAD_CAT_ID": 41861,
        "ELEMENT_SET_NO": 999,
        "REV_AT_EPOCH": 5588,
        "BSTAR": 0,
        "MEAN_MOTION_DOT": 3.7e-7,
        "MEAN_MOTION_DDOT": 0
    },
    {
        "OBJECT_NAME": "GSAT0214 (GALILEO 18)",
        "OBJECT_ID": "2016-069D",
        "EPOCH": "2025-11-17T22:37:27.903648",
        "MEAN_MOTION": 1.70474633,
        "ECCENTRICITY": 7.88e-5,
        "INCLINATION": 55.3657,
        "RA_OF_ASC_NODE": 106.9327,
        "ARG_OF_PERICENTER": 302.0857,
        "MEAN_ANOMALY": 57.8792,
        "EPHEMERIS_TYPE": 0,
        "CLASSIFICATION_TYPE": "U",
        "NORAD_CAT_ID": 41862,
        "ELEMENT_SET_NO": 999,
        "REV_AT_EPOCH": 5604,
        "BSTAR": 0,
        "MEAN_MOTION_DOT": 3.0e-7,
        "MEAN_MOTION_DDOT": 0
    },
    {
        "OBJECT_NAME": "SES-15 (WAAS/PRN 133)",
        "OBJECT_ID": "2017-026A",
        "EPOCH": "2025-11-18T04:00:17.102304",
        "MEAN_MOTION": 1.00268912,
        "ECCENTRICITY": 8.5e-6,
        "INCLINATION": 0.0226,
        "RA_OF_ASC_NODE": 340.7892,
        "ARG_OF_PERICENTER": 290.2514,
        "MEAN_ANOMALY": 77.3372,
        "EPHEMERIS_TYPE": 0,
        "CLASSIFICATION_TYPE": "U",
        "NORAD_CAT_ID": 42709,
        "ELEMENT_SET_NO": 999,
        "REV_AT_EPOCH": 531,
        "BSTAR": 0,
        "MEAN_MOTION_DOT": 7.7e-7,
        "MEAN_MOTION_DDOT": 0
    },
    {
        "OBJECT_NAME": "QZS-2 (QZSS/PRN 194)",
        "OBJECT_ID": "2017-028A",
        "EPOCH": "2025-11-13T16:14:29.339808",
        "MEAN_MOTION": 1.00290964,
        "ECCENTRICITY": 0.07623609,
        "INCLINATION": 39.7622,
        "RA_OF_ASC_NODE": 246.309,
        "ARG_OF_PERICENTER": 269.1324,
        "MEAN_ANOMALY": 281.6069,
        "EPHEMERIS_TYPE": 0,
        "CLASSIFICATION_TYPE": "U",
        "NORAD_CAT_ID": 42738,
        "ELEMENT_SET_NO": 999,
        "REV_AT_EPOCH": 546,
        "BSTAR": 0,
        "MEAN_MOTION_DOT": -2.43e-6,
        "MEAN_MOTION_DDOT": 0
    }
]